{
    "links": {
        "self": "http://www.neowsapp.com/rest/v1/neo/3756915?api_key=iIulBulltgU6a56xZRHN4H3l9WmuAYTsLGpBGhQ2"
    },
    "id": "3756915",
    "neo_reference_id": "3756915",
    "name": "(2016 PG1)",
    "designation": "2016 PG1",
    "nasa_jpl_url": "http://ssd.jpl.nasa.gov/sbdb.cgi?sstr=3756915",
    "absolute_magnitude_h": 23.5,
    "estimated_diameter": {
        "kilometers": {
            "estimated_diameter_min": 0.0530340723,
            "estimated_diameter_max": 0.1185877909
        },
        "meters": {
            "estimated_diameter_min": 53.0340723319,
            "estimated_diameter_max": 118.5877908577
        },
        "miles": {
            "estimated_diameter_min": 0.0329538346,
            "estimated_diameter_max": 0.0736870142
        },
        "feet": {
            "estimated_diameter_min": 173.9963058693,
            "estimated_diameter_max": 389.0675677576
        }
    },
    "is_potentially_hazardous_asteroid": false,
    "close_approach_data": [
        {
            "close_approach_date": "2016-10-27",
            "close_approach_date_full": "2016-Oct-27 15:37",
            "epoch_date_close_approach": 1477582620000,
            "relative_velocity": {
                "kilometers_per_second": "6.8776032083",
                "kilometers_per_hour": "24759.3715498281",
                "miles_per_hour": "15384.510616614"
            },
            "miss_distance": {
                "astronomical": "0.1591492074",
                "lunar": "61.9090416786",
                "kilometers": "23808382.439228238",
                "miles": "14793842.8481281644"
            },
            "orbiting_body": "Earth"
        }
    ],
    "orbital_data": {
        "orbit_id": "4",
        "orbit_determination_date": "2017-04-06 08:24:44",
        "first_observation_date": "2016-08-03",
        "last_observation_date": "2016-08-23",
        "data_arc_in_days": 20,
        "observations_used": 15,
        "orbit_uncertainty": "7",
        "minimum_orbit_intersection": ".0686106",
        "jupiter_tisserand_invariant": "4.451",
        "epoch_osculation": "2459000.5",
        "eccentricity": ".3911796841908748",
        "semi_major_axis": "1.497608201647635",
        "inclination": "8.340478212903424",
        "ascending_node_longitude": "115.1763987707198",
        "orbital_period": "669.4154654232386",
        "perihelion_distance": ".9117742982854494",
        "perihelion_argument": "284.8076834272979",
        "aphelion_distance": "2.083442105009821",
        "perihelion_time": "2459031.880989625199",
        "mean_anomaly": "343.1238493154189",
        "mean_motion": ".5377826157218965",
        "equinox": "J2000",
        "orbit_class": {
            "orbit_class_type": "APO",
            "orbit_class_description": "Near-Earth asteroid orbits which cross the Earth’s orbit similar to that of 1862 Apollo",
            "orbit_class_range": "a (semi-major axis) > 1.0 AU; q (perihelion) < 1.017 AU"
        }
    },
    "is_sentry_object": false
}